OBJECT_NAME,OBJECT_ID,EPOCH,MEAN_MOTION,ECCENTRICITY,INCLINATION,RA_OF_ASC_NODE,ARG_OF_PERICENTER,MEAN_ANOMALY,EPHEMERIS_TYPE,CLASSIFICATION_TYPE,NORAD_CAT_ID,ELEMENT_SET_NO,REV_AT_EPOCH,BSTAR,MEAN_MOTION_DOT,MEAN_MOTION_DDOT
STARLINK-37758,2026-115J,2026-06-13T22:00:01.999584,15.70298785,.00018697,97.2839,182.2155,87.3199,131.4250,0,U,69219,999,416,-.23125167E-1,-.2461247E-1,0
STARLINK-37201,2026-115K,2026-06-13T22:00:01.999584,15.70470039,.00021302,97.2838,182.2139,95.4283,118.2402,0,U,69220,999,416,-.25491339E-1,-.2695645E-1,0
STARLINK-37728,2026-115L,2026-06-13T22:00:01.999584,15.68669556,.00018039,97.2837,182.2139,86.9101,126.5999,0,U,69221,999,416,-.25531382E-1,-.2529175E-1,0
STARLINK-37760,2026-115M,2026-06-13T22:00:01.999584,15.72011397,.0001743,97.2838,182.2173,86.7913,135.3382,0,U,69222,999,416,-.22139397E-1,-.2523747E-1,0
STARLINK-37759,2026-115N,2026-06-13T22:00:01.999584,15.58194257,.00015072,97.2839,182.1657,80.6969,18.2320,0,U,69223,999,416,-.33472105E-1,-.2230492E-1,0
STARLINK-37725,2026-115P,2026-06-13T22:00:01.999584,15.59677577,.00015281,97.2844,182.1731,66.5961,43.8954,0,U,69224,999,416,-.34599157E-1,-.2413242E-1,0
STARLINK-37770,2026-115Q,2026-06-13T22:00:01.999584,15.72959662,.00017339,97.2838,182.2239,87.4420,152.6521,0,U,69225,999,416,-.21114979E-1,-.2452983E-1,0
STARLINK-37736,2026-115R,2026-06-13T22:00:01.999584,15.70848492,.00018363,97.2836,182.2196,87.1346,141.4223,0,U,69226,999,416,-.23225618E-1,-.2520924E-1,0
STARLINK-37737,2026-115S,2026-06-13T22:00:01.999584,15.73529617,.00016317,97.2836,182.2317,92.0835,165.8168,0,U,69227,999,418,-.20747621E-1,-.2467541E-1,0
STARLINK-37618,2026-115T,2026-06-13T22:00:01.999584,15.56944434,.00016498,97.2842,182.1703,65.0398,40.6458,0,U,69228,999,416,-.2503712E-1,-.1594103E-1,0
STARLINK-37679,2026-115U,2026-06-13T22:00:01.999584,15.58383165,.00019129,97.2835,182.1703,71.3679,43.9409,0,U,69229,999,416,-.37451188E-1,-.2477232E-1,0
STARLINK-37746,2026-115V,2026-06-13T22:00:01.999584,15.56095763,.00011506,97.2843,182.1597,69.5837,10.8938,0,U,69230,999,416,-.34073374E-1,-.2112931E-1,0
STARLINK-37557,2026-115W,2026-06-13T22:00:01.999584,15.49119417,.00015676,97.2842,182.1054,102.8102,215.6588,0,U,69231,999,416,.19394038E-2,.106568E-2,0
STARLINK-37745,2026-115X,2026-06-13T22:00:01.999584,15.73373860,.00013058,97.2837,182.2507,83.4185,217.0684,0,U,69232,999,416,-.18616138E-1,-.2235301E-1,0
STARLINK-37739,2026-115Y,2026-06-13T22:00:01.999584,15.57150310,.00016372,97.2842,182.1490,62.0558,1.2766,0,U,69233,999,416,-.39648294E-1,-.2499553E-1,0
STARLINK-37755,2026-115Z,2026-06-13T22:55:51.252384,15.75244050,.00012762,97.2829,182.2226,89.9043,270.2368,0,U,69234,999,417,.79319963E-3,.120139E-2,0
TJS-24,2026-116A,2026-06-13T23:14:54.353760,1.00267658,.00003867,0.0133,349.3612,73.4423,278.4755,0,U,69235,999,19,0,0,0
CZ-7A R/B,2026-116B,2026-05-26T21:56:07.164384,2.38711174,.72516577,19.5460,149.3523,178.3837,187.0911,0,U,69236,999,2,.75663565E-4,.49818E-3,-.368698E-6
STARLINK-37665,2026-117A,2026-06-13T20:00:55.879776,15.82063898,.00020042,53.1586,260.4535,39.5794,320.5375,0,U,69238,999,244,.83617813E-3,.177312E-2,0
STARLINK-37558,2026-117B,2026-06-13T18:28:34.952736,15.82105915,.00004177,53.1586,260.7658,56.2603,303.8460,0,U,69239,999,243,.10703149E-2,.228979E-2,0
STARLINK-37680,2026-117C,2026-06-13T19:57:29.312928,15.82070880,.00020837,53.1587,260.4376,43.1575,316.9611,0,U,69240,999,244,.86517354E-3,.183682E-2,0
STARLINK-37742,2026-117D,2026-06-13T18:23:56.387040,15.82136771,.00005611,53.1590,260.7445,73.1179,286.9905,0,U,69241,999,243,.13215301E-2,.285162E-2,0
STARLINK-37718,2026-117E,2026-06-13T19:52:59.089152,15.82123535,.00013106,53.1590,260.4172,38.7834,321.3284,0,U,69242,999,244,.11804005E-2,.253529E-2,0
STARLINK-37735,2026-117F,2026-06-13T19:52:59.323296,15.82068251,.00010259,53.1588,260.4175,106.0211,254.0925,0,U,69243,999,244,.81062118E-3,.171789E-2,0
STARLINK-37757,2026-117G,2026-06-13T19:49:32.048832,15.82080180,.00011881,53.1587,260.4007,51.4340,308.6789,0,U,69244,999,244,.78735845E-3,.166836E-2,0
STARLINK-37767,2026-117H,2026-06-13T18:12:25.205184,15.82111661,.00009854,53.1582,260.6875,123.6677,236.4440,0,U,69245,999,243,.12509231E-2,.269059E-2,0
STARLINK-35759,2026-117J,2026-06-13T21:13:22.650816,15.82038224,.00008595,53.1588,260.0504,69.9477,290.1639,0,U,69246,999,245,.36942211E-3,.76934E-3,0
STARLINK-37238,2026-117K,2026-06-13T21:06:58.756608,15.82122041,.00008083,53.1585,260.0183,79.5875,280.5239,0,U,69247,999,245,.11982662E-2,.257481E-2,0
STARLINK-37412,2026-117L,2026-06-13T21:02:07.986048,15.82049745,.00011849,53.1591,259.9970,71.6660,288.4493,0,U,69248,999,245,.41565656E-3,.86799E-3,0
STARLINK-37398,2026-117M,2026-06-13T21:04:58.662336,15.80959500,.0000941,53.1596,260.0100,129.4047,230.7060,0,U,69249,999,245,.58950235E-3,.117717E-2,0
