{"updated_at":"2026-06-14T05:57:47.381020Z","count":200,"data":[{"NORAD_CAT_ID":"69238","OBJECT_NAME":"STARLINK-37665","OBJECT_ID":"2026-117A","EPOCH":"2026-06-13T20:00:55.879776","TLE_LINE1":"1 69238U 26117A   26164.83398009  .00177312  00000-0  83618-3 0  9994","TLE_LINE2":"2 69238  53.1586 260.4535 0002004  39.5794 320.5375 15.82063898  2441"},{"NORAD_CAT_ID":"69239","OBJECT_NAME":"STARLINK-37558","OBJECT_ID":"2026-117B","EPOCH":"2026-06-13T18:28:34.952736","TLE_LINE1":"1 69239U 26117B   26164.76984899  .00228979  00000-0  10703-2 0  9995","TLE_LINE2":"2 69239  53.1586 260.7658 0000418  56.2603 303.8460 15.82105915  2438"},{"NORAD_CAT_ID":"69240","OBJECT_NAME":"STARLINK-37680","OBJECT_ID":"2026-117C","EPOCH":"2026-06-13T19:57:29.312928","TLE_LINE1":"1 69240U 26117C   26164.83158927  .00183682  00000-0  86517-3 0  9998","TLE_LINE2":"2 69240  53.1587 260.4376 0002084  43.1575 316.9611 15.82070880  2445"},{"NORAD_CAT_ID":"69241","OBJECT_NAME":"STARLINK-37742","OBJECT_ID":"2026-117D","EPOCH":"2026-06-13T18:23:56.387040","TLE_LINE1":"1 69241U 26117D   26164.76662485  .00285162  00000-0  13215-2 0  9990","TLE_LINE2":"2 69241  53.1590 260.7445 0000561  73.1179 286.9905 15.82136771  2434"},{"NORAD_CAT_ID":"69242","OBJECT_NAME":"STARLINK-37718","OBJECT_ID":"2026-117E","EPOCH":"2026-06-13T19:52:59.089152","TLE_LINE1":"1 69242U 26117E   26164.82846168  .00253529  00000-0  11804-2 0  9994","TLE_LINE2":"2 69242  53.1590 260.4172 0001311  38.7834 321.3284 15.82123535  2447"},{"NORAD_CAT_ID":"69243","OBJECT_NAME":"STARLINK-37735","OBJECT_ID":"2026-117F","EPOCH":"2026-06-13T19:52:59.323296","TLE_LINE1":"1 69243U 26117F   26164.82846439  .00171789  00000-0  81062-3 0  9997","TLE_LINE2":"2 69243  53.1588 260.4175 0001026 106.0211 254.0925 15.82068251  2446"},{"NORAD_CAT_ID":"69244","OBJECT_NAME":"STARLINK-37757","OBJECT_ID":"2026-117G","EPOCH":"2026-06-13T19:49:32.048832","TLE_LINE1":"1 69244U 26117G   26164.82606538  .00166836  00000-0  78736-3 0  9993","TLE_LINE2":"2 69244  53.1587 260.4007 0001188  51.4340 308.6789 15.82080180  2444"},{"NORAD_CAT_ID":"69245","OBJECT_NAME":"STARLINK-37767","OBJECT_ID":"2026-117H","EPOCH":"2026-06-13T18:12:25.205184","TLE_LINE1":"1 69245U 26117H   26164.75862506  .00269059  00000-0  12509-2 0  9991","TLE_LINE2":"2 69245  53.1582 260.6875 0000985 123.6677 236.4440 15.82111661  2434"},{"NORAD_CAT_ID":"69246","OBJECT_NAME":"STARLINK-35759","OBJECT_ID":"2026-117J","EPOCH":"2026-06-13T21:13:22.650816","TLE_LINE1":"1 69246U 26117J   26164.88428994  .00076934  00000-0  36942-3 0  9991","TLE_LINE2":"2 69246  53.1588 260.0504 0000859  69.9477 290.1639 15.82038224  2456"},{"NORAD_CAT_ID":"69247","OBJECT_NAME":"STARLINK-37238","OBJECT_ID":"2026-117K","EPOCH":"2026-06-13T21:06:58.756608","TLE_LINE1":"1 69247U 26117K   26164.87984672  .00257481  00000-0  11983-2 0  9996","TLE_LINE2":"2 69247  53.1585 260.0183 0000808  79.5875 280.5239 15.82122041  2450"},{"NORAD_CAT_ID":"69248","OBJECT_NAME":"STARLINK-37412","OBJECT_ID":"2026-117L","EPOCH":"2026-06-13T21:02:07.986048","TLE_LINE1":"1 69248U 26117L   26164.87648132  .00086799  00000-0  41566-3 0  9998","TLE_LINE2":"2 69248  53.1591 259.9970 0001185  71.6660 288.4493 15.82049745  2451"},{"NORAD_CAT_ID":"69249","OBJECT_NAME":"STARLINK-37398","OBJECT_ID":"2026-117M","EPOCH":"2026-06-13T21:04:58.662336","TLE_LINE1":"1 69249U 26117M   26164.87845674  .00117717  00000-0  58950-3 0  9999","TLE_LINE2":"2 69249  53.1596 260.0100 0000941 129.4047 230.7060 15.80959500  2452"},{"NORAD_CAT_ID":"69219","OBJECT_NAME":"STARLINK-37758","OBJECT_ID":"2026-115J","EPOCH":"2026-06-13T22:00:01.999584","TLE_LINE1":"1 69219U 26115J   26164.91668981 -.02461247  00000-0 -23125-1 0  9991","TLE_LINE2":"2 69219  97.2839 182.2155 0001870  87.3199 131.4250 15.70298785  4163"},{"NORAD_CAT_ID":"69220","OBJECT_NAME":"STARLINK-37201","OBJECT_ID":"2026-115K","EPOCH":"2026-06-13T22:00:01.999584","TLE_LINE1":"1 69220U 26115K   26164.91668981 -.02695645  00000-0 -25491-1 0  9992","TLE_LINE2":"2 69220  97.2838 182.2139 0002130  95.4283 118.2402 15.70470039  4166"},{"NORAD_CAT_ID":"69221","OBJECT_NAME":"STARLINK-37728","OBJECT_ID":"2026-115L","EPOCH":"2026-06-13T22:00:01.999584","TLE_LINE1":"1 69221U 26115L   26164.91668981 -.02529175  00000-0 -25531-1 0  9992","TLE_LINE2":"2 69221  97.2837 182.2139 0001804  86.9101 126.5999 15.68669556  4161"},{"NORAD_CAT_ID":"69222","OBJECT_NAME":"STARLINK-37760","OBJECT_ID":"2026-115M","EPOCH":"2026-06-13T22:00:01.999584","TLE_LINE1":"1 69222U 26115M   26164.91668981 -.02523747  00000-0 -22139-1 0  9993","TLE_LINE2":"2 69222  97.2838 182.2173 0001743  86.7913 135.3382 15.72011397  4165"},{"NORAD_CAT_ID":"69223","OBJECT_NAME":"STARLINK-37759","OBJECT_ID":"2026-115N","EPOCH":"2026-06-13T22:00:01.999584","TLE_LINE1":"1 69223U 26115N   26164.91668981 -.02230492  00000-0 -33472-1 0  9998","TLE_LINE2":"2 69223  97.2839 182.1657 0001507  80.6969  18.2320 15.58194257  4167"},{"NORAD_CAT_ID":"69224","OBJECT_NAME":"STARLINK-37725","OBJECT_ID":"2026-115P","EPOCH":"2026-06-13T22:00:01.999584","TLE_LINE1":"1 69224U 26115P   26164.91668981 -.02413242  00000-0 -34599-1 0  9996","TLE_LINE2":"2 69224  97.2844 182.1731 0001528  66.5961  43.8954 15.59677577  4164"},{"NORAD_CAT_ID":"69225","OBJECT_NAME":"STARLINK-37770","OBJECT_ID":"2026-115Q","EPOCH":"2026-06-13T22:00:01.999584","TLE_LINE1":"1 69225U 26115Q   26164.91668981 -.02452983  00000-0 -21115-1 0  9992","TLE_LINE2":"2 69225  97.2838 182.2239 0001734  87.4420 152.6521 15.72959662  4165"},{"NORAD_CAT_ID":"69226","OBJECT_NAME":"STARLINK-37736","OBJECT_ID":"2026-115R","EPOCH":"2026-06-13T22:00:01.999584","TLE_LINE1":"1 69226U 26115R   26164.91668981 -.02520924  00000-0 -23226-1 0  9999","TLE_LINE2":"2 69226  97.2836 182.2196 0001836  87.1346 141.4223 15.70848492  4164"},{"NORAD_CAT_ID":"69227","OBJECT_NAME":"STARLINK-37737","OBJECT_ID":"2026-115S","EPOCH":"2026-06-13T22:00:01.999584","TLE_LINE1":"1 69227U 26115S   26164.91668981 -.02467541  00000-0 -20748-1 0  9991","TLE_LINE2":"2 69227  97.2836 182.2317 0001632  92.0835 165.8168 15.73529617  4180"},{"NORAD_CAT_ID":"69228","OBJECT_NAME":"STARLINK-37618","OBJECT_ID":"2026-115T","EPOCH":"2026-06-13T22:00:01.999584","TLE_LINE1":"1 69228U 26115T   26164.91668981 -.01594103  00000-0 -25037-1 0  9992","TLE_LINE2":"2 69228  97.2842 182.1703 0001650  65.0398  40.6458 15.56944434  4169"},{"NORAD_CAT_ID":"69229","OBJECT_NAME":"STARLINK-37679","OBJECT_ID":"2026-115U","EPOCH":"2026-06-13T22:00:01.999584","TLE_LINE1":"1 69229U 26115U   26164.91668981 -.02477232  00000-0 -37451-1 0  9990","TLE_LINE2":"2 69229  97.2835 182.1703 0001913  71.3679  43.9409 15.58383165  4168"},{"NORAD_CAT_ID":"69230","OBJECT_NAME":"STARLINK-37746","OBJECT_ID":"2026-115V","EPOCH":"2026-06-13T22:00:01.999584","TLE_LINE1":"1 69230U 26115V   26164.91668981 -.02112931  00000-0 -34073-1 0  9991","TLE_LINE2":"2 69230  97.2843 182.1597 0001151  69.5837  10.8938 15.56095763  4161"},{"NORAD_CAT_ID":"69231","OBJECT_NAME":"STARLINK-37557","OBJECT_ID":"2026-115W","EPOCH":"2026-06-13T22:00:01.999584","TLE_LINE1":"1 69231U 26115W   26164.91668981  .00106568  00000-0  19394-2 0  9997","TLE_LINE2":"2 69231  97.2842 182.1054 0001568 102.8102 215.6588 15.49119417  4168"},{"NORAD_CAT_ID":"69232","OBJECT_NAME":"STARLINK-37745","OBJECT_ID":"2026-115X","EPOCH":"2026-06-13T22:00:01.999584","TLE_LINE1":"1 69232U 26115X   26164.91668981 -.02235301  00000-0 -18616-1 0  9995","TLE_LINE2":"2 69232  97.2837 182.2507 0001306  83.4185 217.0684 15.73373860  4166"},{"NORAD_CAT_ID":"69233","OBJECT_NAME":"STARLINK-37739","OBJECT_ID":"2026-115Y","EPOCH":"2026-06-13T22:00:01.999584","TLE_LINE1":"1 69233U 26115Y   26164.91668981 -.02499553  00000-0 -39648-1 0  9995","TLE_LINE2":"2 69233  97.2842 182.1490 0001637  62.0558   1.2766 15.57150310  4166"},{"NORAD_CAT_ID":"69234","OBJECT_NAME":"STARLINK-37755","OBJECT_ID":"2026-115Z","EPOCH":"2026-06-13T22:55:51.252384","TLE_LINE1":"1 69234U 26115Z   26164.95545431  .00120139  00000-0  79320-3 0  9994","TLE_LINE2":"2 69234  97.2829 182.2226 0001276  89.9043 270.2368 15.75244050  4178"},{"NORAD_CAT_ID":"69235","OBJECT_NAME":"TJS-24","OBJECT_ID":"2026-116A","EPOCH":"2026-06-13T23:14:54.353760","TLE_LINE1":"1 69235U 26116A   26164.96868465  .00000000  00000-0  00000-0 0  9992","TLE_LINE2":"2 69235   0.0133 349.3612 0000387  73.4423 278.4755  1.00267658   196"},{"NORAD_CAT_ID":"69236","OBJECT_NAME":"CZ-7A R/B","OBJECT_ID":"2026-116B","EPOCH":"2026-05-26T21:56:07.164384","TLE_LINE1":"1 69236U 26116B   26146.91397181  .00049818 -36870-6  75664-4 0  9993","TLE_LINE2":"2 69236  19.5460 149.3523 7251658 178.3837 187.0911  2.38711174    24"}]}